COMMENT,ORIGINATOR,NORAD_CAT_ID,OBJECT_NAME,OBJECT_TYPE,CLASSIFICATION_TYPE,INTLDES,EPOCH,EPOCH_MICROSECONDS,MEAN_MOTION,ECCENTRICITY,INCLINATION,RA_OF_ASC_NODE,ARG_OF_PERICENTER,MEAN_ANOMALY,EPHEMERIS_TYPE,ELEMENT_SET_NO,REV_AT_EPOCH,BSTAR,MEAN_MOTION_DOT,MEAN_MOTION_DDOT,FILE,TLE_LINE0,TLE_LINE1,TLE_LINE2,OBJECT_ID,OBJECT_NUMBER,SEMIMAJOR_AXIS,PERIOD,APOGEE,PERIGEE
"GENERATED VIA SPACETRACK.ORG API","JSPOC","13897","SL-6 R/B(2)","ROCKET BODY","U","83019D","2016-01-12 10:02:12","225984","1.96597827","0.7188574","63.861","355.0522","263.4737","256.1445","0","999","23568","0.017947","9.08e-06","0","1979368","0 SL-6 R/B(2)","1 13897U 83019D   16012.41819706  .00000908  00000-0  17947-1 0  9991","2 13897  63.8610 355.0522 7188574 263.4737 256.1445  1.96597827235683","1983-019D","13897","26916.341","732.459","39887.218","1189.195"
"GENERATED VIA SPACETRACK.ORG API","JSPOC","22725","ARIANE 44L+ R/B","ROCKET BODY","U","93048C","2016-01-12 10:02:13","782912","2.61199505","0.6987952","6.8526","87.4427","97.6233","339.6672","0","999","21154","0.00039986","1.46e-06","0","1979539","0 ARIANE 44L+ R/B","1 22725U 93048C   16012.41821508  .00000146  00000-0  39986-3 0  9990","2 22725   6.8526  87.4427 6987952  97.6233 339.6672  2.61199505211542","1993-048C","22725","22271.712","551.302","31456.942","330.211"
"GENERATED VIA SPACETRACK.ORG API","JSPOC","13016","SL-6 R/B(2)","ROCKET BODY","U","81123D","2016-01-12 10:02:24","988992","2.33009201","0.6859836","64.0335","342.4526","255.4651","284.6198","0","999","27034","0.0029124","2e-08","0","1979403","0 SL-6 R/B(2)","1 13016U 81123D   16012.41834478  .00000002  00000-0  29124-2 0  9997","2 13016  64.0335 342.4526 6859836 255.4651 284.6198  2.33009201270347","1981-123D","13016","24033.653","618.001","34142.210","1168.826"
"GENERATED VIA SPACETRACK.ORG API","JSPOC","13912","OV2-3","PAYLOAD","U","65108V","2016-01-12 10:02:52","165248","4.55503325","0.5697332","26.5301","163.8079","105.7381","321.2647","0","999","38662","0.0015388","0.0002286","0","1979405","0 OV2-3","1 13912U 65108V   16012.41865932  .00022860  00000-0  15388-2 0  9999","2 13912  26.5301 163.8079 5697332 105.7381 321.2647  4.55503325386621","1965-108V","13912","15372.369","316.133","17752.383","236.085"
"GENERATED VIA SPACETRACK.ORG API","JSPOC","1244","GGSE 2","PAYLOAD","U","65016B","2016-01-12 10:03:06","187104","13.95541963","0.0018527","70.0792","14.2689","50.1315","310.1417","0","999","58665","4.084e-05","3e-08","0","1979855","0 GGSE 2","1  1244U 65016B   16012.41882161 +.00000003 +00000-0 +40840-4 0  9993","2  1244 070.0792 014.2689 0018527 050.1315 310.1417 13.95541963586659","1965-016B","1244","7287.410","103.185","922.777","895.774"
"GENERATED VIA SPACETRACK.ORG API","JSPOC","19822","EXOS D (AKEBONO)","PAYLOAD","U","89016A","2016-01-12 10:03:08","916480","11.43263841","0.2026072","75.0423","158.7715","224.2649","117.7644","0","999","84889","0.00074246","0.00034641","7.6377","1979375","0 EXOS D (AKEBONO)","1 19822U 89016A   16012.41885320  .00034641  76377-6  74246-3 0  9997","2 19822  75.0423 158.7715 2026072 224.2649 117.7644 11.43263841848897","1989-016A","19822","8323.465","125.955","3631.724","258.936"
"GENERATED VIA SPACETRACK.ORG API","JSPOC","13890","MOLNIYA 1-56","PAYLOAD","U","83019A","2016-01-12 10:03:20","48256","1.99915325","0.7104624","63.7892","315.1893","265.8716","298.7883","0","999","23965","0","1.216e-05","0","1979855","0 MOLNIYA 1-56","1 13890U 83019A   16012.41898204 +.00001216 +00000-0 +00000-0 0  9998","2 13890 063.7892 315.1893 7104624 265.8716 298.7883 01.99915325239651","1983-019A","13890","26617.736","720.304","39150.501","1328.700"
"GENERATED VIA SPACETRACK.ORG API","JSPOC","37253","FALCON 9 R/B","ROCKET BODY","U","10066K","2016-01-12 10:03:21","174048","6.85943874","0.4292925","34.5058","46.4297","156.1327","231.8742","0","999","12467","0.00050205","4.527e-05","0","1979377","0 FALCON 9 R/B","1 37253U 10066K   16012.41899507  .00004527  00000-0  50205-3 0  9999","2 37253  34.5058  46.4297 4292925 156.1327 231.8742  6.85943874124678","2010-066K","37253","11700.635","209.929","10345.495","299.505"
"GENERATED VIA SPACETRACK.ORG API","JSPOC","8546","SL-12 R/B(AUX MOTOR)","ROCKET BODY","U","75123D","2016-01-12 10:03:23","912928","3.97294501","0.5889729","45.7628","285.7622","78.7898","338.674","0","999","53905","0.0006705","1.71e-06","0","1979855","0 SL-12 R/B(AUX MOTOR)","1  8546U 75123D   16012.41902677 +.00000171 +00000-0 +67050-3 0  9997","2  8546 045.7628 285.7622 5889729 078.7898 338.6740 03.97294501539057","1975-123D","8546","16839.407","362.451","20379.227","543.317"
"GENERATED VIA SPACETRACK.ORG API","JSPOC","40087","ORBCOMM FM 107","PAYLOAD","U","14040B","2016-01-12 10:04:01","892640","14.53023895","0.002469","47.0075","1.5313","15.9396","344.226","0","999","7964","9.7101e-05","2.38e-06","0","1979465","0 ORBCOMM FM 107","1 40087U 14040B   16012.41946635  .00000238  00000-0  97101-4 0  9991","2 40087  47.0075   1.5313 0024690  15.9396 344.2260 14.53023895 79648","2014-040B","40087","7093.926","99.103","733.306","698.276"
"GENERATED VIA SPACETRACK.ORG API","JSPOC","8599","NTS 1 AKM","ROCKET BODY","U","74054C","2016-01-12 10:04:15","283776","3.07180231","0.0065924","124.7125","198.6223","210.8914","228.7212","0","999","26841","0","4.3e-07","0","1979855","0 NTS 1 AKM","1  8599U 74054C   16012.41962134 +.00000043 +00000-0 +00000-0 0  9998","2  8599 124.7125 198.6223 0065924 210.8914 228.7212 03.07180231268417","1974-054C","8599","19989.702","468.780","13743.347","13479.787"
"GENERATED VIA SPACETRACK.ORG API","JSPOC","26870","SL-6 R/B(2)","ROCKET BODY","U","01030D","2016-01-12 10:04:15","169728","2.12192298","0.7392366","62.3971","240.1186","258.3099","18.0887","0","999","10468","0.00028801","7.51e-06","0","1979855","0 SL-6 R/B(2)","1 26870U 01030D   16012.41962002 +.00000751 +00000-0 +28801-3 0  9996","2 26870 062.3971 240.1186 7392366 258.3099 018.0887 02.12192298104684","2001-030D","26870","25580.877","678.629","38113.062","292.421"
"GENERATED VIA SPACETRACK.ORG API","JSPOC","26870","SL-6 R/B(2)","ROCKET BODY","U","01030D","2016-01-12 10:04:15","169728","2.12192298","0.7392366","62.3971","240.1186","258.3099","18.0887","0","999","10465","0.00028801","7.51e-06","0","1980270","0 SL-6 R/B(2)","1 26870U 01030D   16012.41962002 +.00000751 +00000-0 +28801-3 0  9996","2 26870 062.3971 240.1186 7392366 258.3099 018.0887 02.12192298104651","2001-030D","26870","25580.877","678.629","38113.062","292.421"
"GENERATED VIA SPACETRACK.ORG API","JSPOC","3670","DELTA 1 R/B","ROCKET BODY","U","69009B","2016-01-12 10:05:00","254976","11.43738369","0.1643462","88.4369","178.3852","244.9512","97.2377","0","999","94384","0.00026861","3.87e-06","0","1979420","0 DELTA 1 R/B","1 03670U 69009B   16012.42014184  .00000387  00000-0  26861-3 0  9998","2 03670  88.4369 178.3852 1643462 244.9512  97.2377 11.43738369943841","1969-009B","3670","8321.163","125.902","3310.579","575.476"
"GENERATED VIA SPACETRACK.ORG API","JSPOC","39771","H-2A R/B","ROCKET BODY","U","14029F","2016-01-12 10:05:24","832320","14.92391903","0.0017859","98.148","137.6035","156.8595","203.3431","0","999","8919","0.0001667","1.649e-05","0","1979427","0 H-2A R/B","1 39771U 14029F   16012.42042630  .00001649  00000-0  16670-3 0  9997","2 39771  98.1480 137.6035 0017859 156.8595 203.3431 14.92391903 89197","2014-029F","39771","6968.616","96.489","602.927","578.036"
"GENERATED VIA SPACETRACK.ORG API","JSPOC","10121","SL-8 R/B","ROCKET BODY","U","77059B","2016-01-12 10:05:33","435168","14.35724956","0.0017902","74.048","8.4415","132.1385","228.1293","0","999","1474","6.192e-05","1.53e-06","0","1979855","0 SL-8 R/B","1 10121U 77059B   16012.42052587 +.00000153 +00000-0 +61920-4 0  9997","2 10121 074.0480 008.4415 0017902 132.1385 228.1293 14.35724956014743","1977-059B","10121","7150.795","100.297","785.461","759.858"
"GENERATED VIA SPACETRACK.ORG API","JSPOC","20533","NAVSTAR 19 (USA 54)","PAYLOAD","U","90025A","2016-01-12 10:05:54","341376","1.91038164","0.0038725","55.482","24.6371","147.3548","0.0889","0","999","18232","0","-4.4e-07","0","1979510","0 NAVSTAR 19 (USA 54)","1 20533U 90025A   16012.42076784 -.00000044  00000-0  00000+0 0  9995","2 20533  55.4820  24.6371 0038725 147.3548   0.0889  1.91038164182323","1990-025A","20533","27436.060","753.776","21164.171","20951.679"
"GENERATED VIA SPACETRACK.ORG API","JSPOC","41173","DAMPE","PAYLOAD","U","15078A","2016-01-12 10:05:55","723776","15.23226202","0.0013518","97.2995","29.0681","188.7343","312.8976","0","999","402","2.3325e-05","4.84e-06","0","1979457","0 DAMPE","1 41173U 15078A   16012.42078384  .00000484  00000-0  23325-4 0  9998","2 41173  97.2995  29.0681 0013518 188.7343 312.8976 15.23226202  4024","2015-078A","41173","6874.253","94.536","505.411","486.826"
"GENERATED VIA SPACETRACK.ORG API","JSPOC","38248","RISAT 1","PAYLOAD","U","12017A","2016-01-12 10:06:05","987232","15.08950487","0.0005636","97.5621","21.3204","44.5164","82.8304","0","999","20455","6.2343e-05","9.21e-06","0","1979480","0 RISAT 1","1 38248U 12017A   16012.42090263  .00000921  00000-0  62343-4 0  9996","2 38248  97.5621  21.3204 0005636  44.5164  82.8304 15.08950487204551","2012-017A","38248","6917.542","95.430","543.306","535.508"
"GENERATED VIA SPACETRACK.ORG API","JSPOC","23845","SL-12 R/B(2)","ROCKET BODY","U","96021D","2016-01-12 10:06:18","337248","1.64342252","0.4033288","7.2645","87.7596","186.5494","158.9604","0","999","11859","0","-9.8e-07","0","1979855","0 SL-12 R/B(2)","1 23845U 96021D   16012.42104557 -.00000098 +00000-0 +00000-0 0  9996","2 23845 007.2645 087.7596 4033288 186.5494 158.9604 01.64342252118591","1996-021D","23845","30332.091","876.220","36187.762","11720.150"
